{"type": "FeatureCollection", "features": [ {"type": "Feature", "properties": {"norad_id": 33779, "name": "COSMOS 2251 DEB", "group": "cosmos-2251-debris", "lat": 1.5164258240371176, "lon": -37.74875799417323, "alt_km": 649.7857108578437, "timestamp": "2025-12-27T04:40:45.897448+00:00", "meta": {"OBJECT_NAME": "COSMOS 2251 DEB", "OBJECT_ID": "1993-036U", "EPOCH": "2025-12-26T20:15:07.854624", "MEAN_MOTION": 14.70841051, "ECCENTRICITY": 0.00156744, "INCLINATION": 74.045, "RA_OF_ASC_NODE": 143.3662, "ARG_OF_PERICENTER": 175.823, "MEAN_ANOMALY": 303.9689, "EPHEMERIS_TYPE": 0, "CLASSIFICATION_TYPE": "U", "NORAD_CAT_ID": 33779, "ELEMENT_SET_NO": 999, "REV_AT_EPOCH": 88735, "BSTAR": 0.0029682163, "MEAN_MOTION_DOT": 0.00018198, "MEAN_MOTION_DDOT": 0}, "tle": {"line1": "1 33779U 93036U   25360.84384091  .00018198  00000+0  29682-2 0  9998", "line2": "2 33779  74.0450 143.3662 0015674 175.8230 303.9689 14.70841051887355"}}, "geometry": {"type": "Point", "coordinates": [-37.74875799417323, 1.5164258240371176]}}, {"type": "Feature", "properties": {"norad_id": 33782, "name": "COSMOS 2251 DEB", "group": "cosmos-2251-debris", "lat": 8.900018409673436, "lon": 68.24333398127972, "alt_km": 770.3578706767794, "timestamp": "2025-12-27T04:40:45.897458+00:00", "meta": {"OBJECT_NAME": "COSMOS 2251 DEB", "OBJECT_ID": "1993-036X", "EPOCH": "2025-12-26T22:57:23.579424", "MEAN_MOTION": 14.40482678, "ECCENTRICITY": 0.00211947, "INCLINATION": 74.0324, "RA_OF_ASC_NODE": 251.254, "ARG_OF_PERICENTER": 314.1462, "MEAN_ANOMALY": 60.5728, "EPHEMERIS_TYPE": 0, "CLASSIFICATION_TYPE": "U", "NORAD_CAT_ID": 33782, "ELEMENT_SET_NO": 999, "REV_AT_EPOCH": 88331, "BSTAR": 0.00040014035, "MEAN_MOTION_DOT": 1.25e-05, "MEAN_MOTION_DDOT": 0}, "tle": {"line1": "1 33782U 93036X   25360.95652291  .00001250  00000+0  40014-3 0  9998", "line2": "2 33782  74.0324 251.2540 0021194 314.1462  60.5728 14.40482678883317"}}, "geometry": {"type": "Point", "coordinates": [68.24333398127972, 8.900018409673436]}}, {"type": "Feature", "properties": {"norad_id": 33785, "name": "COSMOS 2251 DEB", "group": "cosmos-2251-debris", "lat": 26.224558574908354, "lon": -156.61510269579017, "alt_km": 673.60466252266, "timestamp": "2025-12-27T04:40:45.897468+00:00", "meta": {"OBJECT_NAME": "COSMOS 2251 DEB", "OBJECT_ID": "1993-036AA", "EPOCH": "2025-12-26T13:50:20.361984", "MEAN_MOTION": 14.70792391, "ECCENTRICITY": 0.0023335, "INCLINATION": 73.8669, "RA_OF_ASC_NODE": 32.7945, "ARG_OF_PERICENTER": 329.9674, "MEAN_ANOMALY": 149.811, "EPHEMERIS_TYPE": 0, "CLASSIFICATION_TYPE": "U", "NORAD_CAT_ID": 33785, "ELEMENT_SET_NO": 999, "REV_AT_EPOCH": 88710, "BSTAR": 0.0019135, "MEAN_MOTION_DOT": 0.00011722, "MEAN_MOTION_DDOT": 0}, "tle": {"line1": "1 33785U 93036AA  25360.57662456  .00011722  00000+0  19135-2 0  9997", "line2": "2 33785  73.8669  32.7945 0023335 329.9674 149.8110 14.70792391887104"}}, "geometry": {"type": "Point", "coordinates": [-156.61510269579017, 26.224558574908354]}}, {"type": "Feature", "properties": {"norad_id": 33789, "name": "COSMOS 2251 DEB", "group": "cosmos-2251-debris", "lat": 32.192499892998555, "lon": 73.23567943200923, "alt_km": 1065.962539043735, "timestamp": "2025-12-27T04:40:45.897478+00:00", "meta": {"OBJECT_NAME": "COSMOS 2251 DEB", "OBJECT_ID": "1993-036AE", "EPOCH": "2025-12-26T15:25:03.335808", "MEAN_MOTION": 13.88825721, "ECCENTRICITY": 0.023946, "INCLINATION": 74.0643, "RA_OF_ASC_NODE": 63.8111, "ARG_OF_PERICENTER": 176.3649, "MEAN_ANOMALY": 337.4119, "EPHEMERIS_TYPE": 0, "CLASSIFICATION_TYPE": "U", "NORAD_CAT_ID": 33789, "ELEMENT_SET_NO": 999, "REV_AT_EPOCH": 85288, "BSTAR": 0.00064153, "MEAN_MOTION_DOT": 9.52e-06, "MEAN_MOTION_DDOT": 0}, "tle": {"line1": "1 33789U 93036AE  25360.64239972  .00000952  00000+0  64153-3 0  9996", "line2": "2 33789  74.0643  63.8111 0239460 176.3649 337.4119 13.88825721852880"}}, "geometry": {"type": "Point", "coordinates": [73.23567943200923, 32.192499892998555]}}, {"type": "Feature", "properties": {"norad_id": 33791, "name": "COSMOS 2251 DEB", "group": "cosmos-2251-debris", "lat": -33.34981267058222, "lon": -158.2826667100733, "alt_km": 732.6961529060318, "timestamp": "2025-12-27T04:40:45.897488+00:00", "meta": {"OBJECT_NAME": "COSMOS 2251 DEB", "OBJECT_ID": "1993-036AG", "EPOCH": "2025-12-26T18:31:57.385344", "MEAN_MOTION": 14.43201924, "ECCENTRICITY": 0.00299376, "INCLINATION": 74.1753, "RA_OF_ASC_NODE": 11.7378, "ARG_OF_PERICENTER": 206.1022, "MEAN_ANOMALY": 332.9029, "EPHEMERIS_TYPE": 0, "CLASSIFICATION_TYPE": "U", "NORAD_CAT_ID": 33791, "ELEMENT_SET_NO": 999, "REV_AT_EPOCH": 88254, "BSTAR": 0.00097000517, "MEAN_MOTION_DOT": 3.255e-05, "MEAN_MOTION_DDOT": 0}, "tle": {"line1": "1 33791U 93036AG  25360.77219196  .00003255  00000+0  97001-3 0  9996", "line2": "2 33791  74.1753  11.7378 0029937 206.1022 332.9029 14.43201924882547"}}, "geometry": {"type": "Point", "coordinates": [-158.2826667100733, -33.34981267058222]}}, {"type": "Feature", "properties": {"norad_id": 33792, "name": "COSMOS 2251 DEB", "group": "cosmos-2251-debris", "lat": -57.00057354414795, "lon": 168.66349290824832, "alt_km": 1346.2302627719, "timestamp": "2025-12-27T04:40:45.897499+00:00", "meta": {"OBJECT_NAME": "COSMOS 2251 DEB", "OBJECT_ID": "1993-036AH", "EPOCH": "2025-12-26T15:49:58.895616", "MEAN_MOTION": 13.45851912, "ECCENTRICITY": 0.04279227, "INCLINATION": 73.9014, "RA_OF_ASC_NODE": 323.1143, "ARG_OF_PERICENTER": 25.233, "MEAN_ANOMALY": 146.0511, "EPHEMERIS_TYPE": 0, "CLASSIFICATION_TYPE": "U", "NORAD_CAT_ID": 33792, "ELEMENT_SET_NO": 999, "REV_AT_EPOCH": 82629, "BSTAR": 0.0013117704, "MEAN_MOTION_DOT": 1.342e-05, "MEAN_MOTION_DDOT": 0}, "tle": {"line1": "1 33792U 93036AH  25360.65970944  .00001342  00000+0  13118-2 0  9990", "line2": "2 33792  73.9014 323.1143 0427922  25.2330 146.0511 13.45851912826292"}}, "geometry": {"type": "Point", "coordinates": [168.66349290824832, -57.00057354414795]}}, {"type": "Feature", "properties": {"norad_id": 33793, "name": "COSMOS 2251 DEB", "group": "cosmos-2251-debris", "lat": 17.62641081487987, "lon": 128.88290503513872, "alt_km": 815.9146745332819, "timestamp": "2025-12-27T04:40:45.897509+00:00", "meta": {"OBJECT_NAME": "COSMOS 2251 DEB", "OBJECT_ID": "1993-036AJ", "EPOCH": "2025-12-26T12:08:31.487136", "MEAN_MOTION": 14.27770959, "ECCENTRICITY": 0.0078999, "INCLINATION": 73.9811, "RA_OF_ASC_NODE": 124.8977, "ARG_OF_PERICENTER": 272.3377, "MEAN_ANOMALY": 164.9424, "EPHEMERIS_TYPE": 0, "CLASSIFICATION_TYPE": "U", "NORAD_CAT_ID": 33793, "ELEMENT_SET_NO": 999, "REV_AT_EPOCH": 87403, "BSTAR": 0.00080827, "MEAN_MOTION_DOT": 2.037e-05, "MEAN_MOTION_DDOT": 0}, "tle": {"line1": "1 33793U 93036AJ  25360.50591999  .00002037  00000+0  80827-3 0  9998", "line2": "2 33793  73.9811 124.8977 0078999 272.3377 164.9424 14.27770959874030"}}, "geometry": {"type": "Point", "coordinates": [128.88290503513872, 17.62641081487987]}}, {"type": "Feature", "properties": {"norad_id": 33795, "name": "COSMOS 2251 DEB", "group": "cosmos-2251-debris", "lat": 55.41169839037517, "lon": 71.62372264746288, "alt_km": 534.1413236962553, "timestamp": "2025-12-27T04:40:45.897519+00:00", "meta": {"OBJECT_NAME": "COSMOS 2251 DEB", "OBJECT_ID": "1993-036AL", "EPOCH": "2025-12-26T21:13:17.089248", "MEAN_MOTION": 15.05988405, "ECCENTRICITY": 0.00302805, "INCLINATION": 74.0312, "RA_OF_ASC_NODE": 47.7245, "ARG_OF_PERICENTER": 125.4028, "MEAN_ANOMALY": 49.8424, "EPHEMERIS_TYPE": 0, "CLASSIFICATION_TYPE": "U", "NORAD_CAT_ID": 33795, "ELEMENT_SET_NO": 999, "REV_AT_EPOCH": 90234, "BSTAR": 0.0013545079, "MEAN_MOTION_DOT": 0.0001996, "MEAN_MOTION_DDOT": 0}, "tle": {"line1": "1 33795U 93036AL  25360.88422557  .00019960  00000+0  13545-2 0  9999", "line2": "2 33795  74.0312  47.7245 0030280 125.4028  49.8424 15.05988405902344"}}, "geometry": {"type": "Point", "coordinates": [71.62372264746288, 55.41169839037517]}}, {"type": "Feature", "properties": {"norad_id": 33797, "name": "COSMOS 2251 DEB", "group": "cosmos-2251-debris", "lat": -74.03024356783199, "lon": -84.16194290338188, "alt_km": 749.6403876522663, "timestamp": "2025-12-27T04:40:45.897529+00:00", "meta": {"OBJECT_NAME": "COSMOS 2251 DEB", "OBJECT_ID": "1993-036AN", "EPOCH": "2025-12-26T18:21:05.449824", "MEAN_MOTION": 14.57896917, "ECCENTRICITY": 0.00603512, "INCLINATION": 74.0465, "RA_OF_ASC_NODE": 8.3032, "ARG_OF_PERICENTER": 91.9214, "MEAN_ANOMALY": 79.9806, "EPHEMERIS_TYPE": 0, "CLASSIFICATION_TYPE": "U", "NORAD_CAT_ID": 33797, "ELEMENT_SET_NO": 999, "REV_AT_EPOCH": 89189, "BSTAR": 0.00041188805, "MEAN_MOTION_DOT": 1.906e-05, "MEAN_MOTION_DDOT": 0}, "tle": {"line1": "1 33797U 93036AN  25360.76464641  .00001906  00000+0  41189-3 0  9995", "line2": "2 33797  74.0465   8.3032 0060351  91.9214  79.9806 14.57896917891895"}}, "geometry": {"type": "Point", "coordinates": [-84.16194290338188, -74.03024356783199]}}, {"type": "Feature", "properties": {"norad_id": 33798, "name": "COSMOS 2251 DEB", "group": "cosmos-2251-debris", "lat": 0.5936612413579958, "lon": -71.1886878824152, "alt_km": 701.411689916411, "timestamp": "2025-12-27T04:40:45.897539+00:00", "meta": {"OBJECT_NAME": "COSMOS 2251 DEB", "OBJECT_ID": "1993-036AP", "EPOCH": "2025-12-26T18:27:10.247040", "MEAN_MOTION": 14.44632989, "ECCENTRICITY": 0.00922766, "INCLINATION": 74.0296, "RA_OF_ASC_NODE": 109.7747, "ARG_OF_PERICENTER": 228.1031, "MEAN_ANOMALY": 256.7965, "EPHEMERIS_TYPE": 0, "CLASSIFICATION_TYPE": "U", "NORAD_CAT_ID": 33798, "ELEMENT_SET_NO": 999, "REV_AT_EPOCH": 88796, "BSTAR": 0.00021125396, "MEAN_MOTION_DOT": 7.41e-06, "MEAN_MOTION_DDOT": 0}, "tle": {"line1": "1 33798U 93036AP  25360.76886860  .00000741  00000+0  21125-3 0  9991", "line2": "2 33798  74.0296 109.7747 0092276 228.1031 256.7965 14.44632989887966"}}, "geometry": {"type": "Point", "coordinates": [-71.1886878824152, 0.5936612413579958]}}]}